[{"OBJECT_NAME":"STARLINK-30994","OBJECT_ID":"2023-186L","EPOCH":"2026-03-09T22:44:49.936416","MEAN_MOTION":15.27566859,"ECCENTRICITY":0.00010163,"INCLINATION":42.9978,"RA_OF_ASC_NODE":258.7093,"ARG_OF_PERICENTER":266.5661,"MEAN_ANOMALY":93.5075,"EPHEMERIS_TYPE":0,"CLASSIFICATION_TYPE":"U","NORAD_CAT_ID":58483,"ELEMENT_SET_NO":999,"REV_AT_EPOCH":12784,"BSTAR":-3.2140926e-5,"MEAN_MOTION_DOT":-1.146e-5,"MEAN_MOTION_DDOT":0},{"OBJECT_NAME":"GEOSCAN 4 (RS92S4)","OBJECT_ID":"2025-155S","EPOCH":"2026-03-09T21:50:07.724832","MEAN_MOTION":15.30369837,"ECCENTRICITY":0.00070968,"INCLINATION":97.4465,"RA_OF_ASC_NODE":37.7626,"ARG_OF_PERICENTER":154.7045,"MEAN_ANOMALY":205.4544,"EPHEMERIS_TYPE":0,"CLASSIFICATION_TYPE":"U","NORAD_CAT_ID":64892,"ELEMENT_SET_NO":999,"REV_AT_EPOCH":6562,"BSTAR":0.00068609503,"MEAN_MOTION_DOT":0.00020121,"MEAN_MOTION_DDOT":0}]
